CSS (TIANHE)            
1 48274U 21035A   24032.85189202  .00016516  00000+0  18000-3 0  9992
2 48274  41.4674 196.1221 0008763 284.0776  75.9090 15.62978713157757
